STARLINK-30716          
1 57936U 23148B   26068.26184277 -.00000498  00000+0 -46818-5 0  9991
2 57936  53.1622  26.4173 0001251 100.2139 259.9003 15.30191740138358
TEVEL2-6                
1 63215U 25052F   26068.64958975  .00021046  00000+0  70909-3 0  9996
2 63215  97.4016 325.0381 0004769  95.6604 264.5181 15.30760889 54861
